{
  "type": "FeatureCollection",
  "features": [
    {
      "type": "Feature",
      "properties": {
        "ID": "W1",
        "minAlt": "GND",
        "maxAlt": "FL245",
        "parentSector": "W"
      },
      "geometry": {
        "type": "Polygon",
        "coordinates": [
          [
            [
              17.828056,
              60.258056
            ],
            [
              18.0375,
              60.165
            ],
            [
              18.124444,
              60.155833
            ],
            [
              17.938611,
              59.650556
            ],
            [
              17.410556,
              59.569722
            ],
            [
              17.113056,
              59.450278
            ],
            [
              16.952778,
              59.452222
            ],
            [
              16.680278,
              59.454722
            ],
            [
              16.891111,
              59.938889
            ],
            [
              17.596667,
              60.232778
            ],
            [
              17.828056,
              60.258056
            ]
          ]
        ]
      }
    },
    {
      "type": "Feature",
      "properties": {
        "ID": "W2",
        "minAlt": "GND",
        "maxAlt": "FL95",
        "parentSector": "W"
      },
      "geometry": {
        "type": "Polygon",
        "coordinates": [
          [
            [
              17.828056,
              60.258056
            ],
            [
              18.213056,
              60.299444
            ],
            [
              18.124444,
              60.155833
            ],
            [
              18.0375,
              60.165
            ],
            [
              17.828056,
              60.258056
            ]
          ]
        ]
      }
    },
    {
      "type": "Feature",
      "properties": {
        "ID": "E1",
        "minAlt": "GND",
        "maxAlt": "FL245",
        "parentSector": "E"
      },
      "geometry": {
        "type": "Polygon",
        "coordinates": [
          [
            [
              18.124444,
              60.155833
            ],
            [
              18.738611,
              60.090556
            ],
            [
              18.885556,
              59.948333
            ],
            [
              18.936111,
              59.898333
            ],
            [
              19.076111,
              59.659444
            ],
            [
              19.069167,
              59.544167
            ],
            [
              18.721111,
              59.461667
            ],
            [
              18.710833,
              59.150278
            ],
            [
              17.964167,
              59.347778
            ],
            [
              17.852222,
              59.404444
            ],
            [
              17.938611,
              59.650556
            ],
            [
              18.124444,
              60.155833
            ]
          ]
        ]
      }
    },
    {
      "type": "Feature",
      "properties": {
        "ID": "E2",
        "minAlt": "FL65",
        "maxAlt": "FL245",
        "parentSector": "E"
      },
      "geometry": {
        "type": "Polygon",
        "coordinates": [
          [
            [
              17.852222,
              59.404444
            ],
            [
              17.964167,
              59.347778
            ],
            [
              18.710833,
              59.150278
            ],
            [
              18.709167,
              59.000278
            ],
            [
              17.746667,
              59.249444
            ],
            [
              17.852222,
              59.404444
            ]
          ]
        ]
      }
    },
    {
      "type": "Feature",
      "properties": {
        "ID": "E3",
        "minAlt": "FL105",
        "maxAlt": "FL245",
        "parentSector": "E"
      },
      "geometry": {
        "type": "Polygon",
        "coordinates": [
          [
            [
              17.746667,
              59.249444
            ],
            [
              18.709167,
              59.000278
            ],
            [
              18.63,
              58.921389
            ],
            [
              17.394167,
              59.055833
            ],
            [
              17.591944,
              59.164722
            ],
            [
              17.746667,
              59.249444
            ]
          ]
        ]
      }
    },
    {
      "type": "Feature",
      "properties": {
        "ID": "E4",
        "minAlt": "GND",
        "maxAlt": "FL95",
        "parentSector": "E"
      },
      "geometry": {
        "type": "Polygon",
        "coordinates": [
          [
            [
              18.213056,
              60.299444
            ],
            [
              18.391667,
              60.279167
            ],
            [
              18.554722,
              60.266111
            ],
            [
              18.738611,
              60.090556
            ],
            [
              18.124444,
              60.155833
            ],
            [
              18.213056,
              60.299444
            ]
          ]
        ]
      }
    },
    {
      "type": "Feature",
      "properties": {
        "ID": "E5",
        "minAlt": "GND",
        "maxAlt": "FL95",
        "parentSector": "E"
      },
      "geometry": {
        "type": "Polygon",
        "coordinates": [
          [
            [
              19.069167,
              59.544167
            ],
            [
              19.06,
              59.359444
            ],
            [
              18.716389,
              59.007222
            ],
            [
              18.709167,
              59.000278
            ],
            [
              18.710833,
              59.150278
            ],
            [
              18.721111,
              59.461667
            ],
            [
              19.069167,
              59.544167
            ]
          ]
        ]
      }
    },
    {
      "type": "Feature",
      "properties": {
        "ID": "D1",
        "minAlt": "GND",
        "maxAlt": "FL245",
        "parentSector": "D"
      },
      "geometry": {
        "type": "Polygon",
        "coordinates": [
          [
            [
              17.938611,
              59.650556
            ],
            [
              17.410556,
              59.569722
            ],
            [
              17.746667,
              59.441111
            ],
            [
              17.852222,
              59.404444
            ],
            [
              17.905,
              59.555556
            ],
            [
              17.938611,
              59.650556
            ]
          ]
        ]
      }
    },
    {
      "type": "Feature",
      "properties": {
        "ID": "D2",
        "minAlt": "A35",
        "maxAlt": "FL245",
        "parentSector": "D"
      },
      "geometry": {
        "type": "Polygon",
        "coordinates": [
          [
            [
              17.410556,
              59.569722
            ],
            [
              17.746667,
              59.441111
            ],
            [
              17.113056,
              59.450278
            ],
            [
              17.410556,
              59.569722
            ]
          ]
        ]
      }
    },
    {
      "type": "Feature",
      "properties": {
        "ID": "D3",
        "minAlt": "FL65",
        "maxAlt": "FL245",
        "parentSector": "D"
      },
      "geometry": {
        "type": "Polygon",
        "coordinates": [
          [
            [
              17.746667,
              59.441111
            ],
            [
              17.852222,
              59.404444
            ],
            [
              17.746667,
              59.249444
            ],
            [
              16.899722,
              59.357778
            ],
            [
              16.680278,
              59.454722
            ],
            [
              16.952778,
              59.452222
            ],
            [
              17.113056,
              59.450278
            ],
            [
              17.746667,
              59.441111
            ]
          ]
        ]
      }
    },
    {
      "type": "Feature",
      "properties": {
        "ID": "D4",
        "minAlt": "FL105",
        "maxAlt": "FL245",
        "parentSector": "D"
      },
      "geometry": {
        "type": "Polygon",
        "coordinates": [
          [
            [
              16.680278,
              59.454722
            ],
            [
              16.899722,
              59.357778
            ],
            [
              17.746667,
              59.249444
            ],
            [
              17.591944,
              59.164722
            ],
            [
              17.394167,
              59.055833
            ],
            [
              17.26,
              58.975833
            ],
            [
              16.996389,
              58.993611
            ],
            [
              16.707778,
              59.011944
            ],
            [
              16.644444,
              59.093889
            ],
            [
              16.571944,
              59.200833
            ],
            [
              16.680278,
              59.454722
            ]
          ]
        ]
      }
    },
    {
      "type": "Feature",
      "properties": {
        "ID": "S1",
        "minAlt": "GND",
        "maxAlt": "FL65",
        "parentSector": "S"
      },
      "geometry": {
        "type": "Polygon",
        "coordinates": [
          [
            [
              17.746667,
              59.441111
            ],
            [
              17.852222,
              59.404444
            ],
            [
              17.746667,
              59.249444
            ],
            [
              16.899722,
              59.357778
            ],
            [
              16.680278,
              59.454722
            ],
            [
              16.952778,
              59.452222
            ],
            [
              17.113056,
              59.450278
            ],
            [
              17.746667,
              59.441111
            ]
          ]
        ]
      }
    },
    {
      "type": "Feature",
      "properties": {
        "ID": "S2",
        "minAlt": "GND",
        "maxAlt": "FL65",
        "parentSector": "S"
      },
      "geometry": {
        "type": "Polygon",
        "coordinates": [
          [
            [
              17.852222,
              59.404444
            ],
            [
              17.964167,
              59.347778
            ],
            [
              18.710833,
              59.150278
            ],
            [
              18.709167,
              59.000278
            ],
            [
              17.746667,
              59.249444
            ],
            [
              17.852222,
              59.404444
            ]
          ]
        ]
      }
    },
    {
      "type": "Feature",
      "properties": {
        "ID": "S3",
        "minAlt": "GND",
        "maxAlt": "FL105",
        "parentSector": "S"
      },
      "geometry": {
        "type": "Polygon",
        "coordinates": [
          [
            [
              16.680278,
              59.454722
            ],
            [
              16.899722,
              59.357778
            ],
            [
              17.746667,
              59.249444
            ],
            [
              18.709167,
              59.000278
            ],
            [
              18.63,
              58.921389
            ],
            [
              18.525833,
              58.819444
            ],
            [
              18.178889,
              58.821389
            ],
            [
              17.456944,
              58.616389
            ],
            [
              17.441111,
              58.728611
            ],
            [
              17.407778,
              58.966111
            ],
            [
              17.26,
              58.975833
            ],
            [
              16.996389,
              58.993611
            ],
            [
              16.707778,
              59.011944
            ],
            [
              16.644444,
              59.093889
            ],
            [
              16.571944,
              59.200833
            ],
            [
              16.680278,
              59.454722
            ]
          ]
        ]
      }
    },
    {
      "type": "Feature",
      "properties": {
        "ID": "S4",
        "minAlt": "GND",
        "maxAlt": "A35",
        "parentSector": "S"
      },
      "geometry": {
        "type": "Polygon",
        "coordinates": [
          [
            [
              17.410556,
              59.569722
            ],
            [
              17.746667,
              59.441111
            ],
            [
              17.113056,
              59.450278
            ],
            [
              17.410556,
              59.569722
            ]
          ]
        ]
      }
    },
    {
      "type": "Feature",
      "properties": {
        "ID": "D",
        "minAlt": "GND",
        "maxAlt": "FL245",
        "parentSector": ""
      },
      "geometry": {
        "type": "Polygon",
        "coordinates": [
          [
            [
              16.571944,
              59.200833
            ],
            [
              16.644444,
              59.093889
            ],
            [
              16.707778,
              59.011944
            ],
            [
              16.996389,
              58.993611
            ],
            [
              17.26,
              58.975833
            ],
            [
              17.394167,
              59.055833
            ],
            [
              17.591944,
              59.164722
            ],
            [
              17.746667,
              59.249444
            ],
            [
              17.852222,
              59.404444
            ],
            [
              17.905,
              59.555556
            ],
            [
              17.938611,
              59.650556
            ],
            [
              17.410556,
              59.569722
            ],
            [
              17.113056,
              59.450278
            ],
            [
              16.952778,
              59.452222
            ],
            [
              16.680278,
              59.454722
            ],
            [
              16.571944,
              59.200833
            ]
          ]
        ]
      }
    },
    {
      "type": "Feature",
      "properties": {
        "ID": "E",
        "minAlt": "GND",
        "maxAlt": "FL245",
        "parentSector": ""
      },
      "geometry": {
        "type": "Polygon",
        "coordinates": [
          [
            [
              17.394167,
              59.055833
            ],
            [
              18.63,
              58.921389
            ],
            [
              18.709167,
              59.000278
            ],
            [
              18.716389,
              59.007222
            ],
            [
              19.06,
              59.359444
            ],
            [
              19.069167,
              59.544167
            ],
            [
              19.076111,
              59.659444
            ],
            [
              18.936111,
              59.898333
            ],
            [
              18.885556,
              59.948333
            ],
            [
              18.738611,
              60.090556
            ],
            [
              18.554722,
              60.266111
            ],
            [
              18.391667,
              60.279167
            ],
            [
              18.213056,
              60.299444
            ],
            [
              18.124444,
              60.155833
            ],
            [
              17.938611,
              59.650556
            ],
            [
              17.852222,
              59.404444
            ],
            [
              17.746667,
              59.249444
            ],
            [
              17.591944,
              59.164722
            ],
            [
              17.394167,
              59.055833
            ]
          ]
        ]
      }
    },
    {
      "type": "Feature",
      "properties": {
        "ID": "S",
        "minAlt": "GND",
        "maxAlt": "FL105",
        "parentSector": ""
      },
      "geometry": {
        "type": "Polygon",
        "coordinates": [
          [
            [
              16.571944,
              59.200833
            ],
            [
              16.644444,
              59.093889
            ],
            [
              16.707778,
              59.011944
            ],
            [
              16.996389,
              58.993611
            ],
            [
              17.26,
              58.975833
            ],
            [
              17.407778,
              58.966111
            ],
            [
              17.441111,
              58.728611
            ],
            [
              17.456944,
              58.616389
            ],
            [
              18.178889,
              58.821389
            ],
            [
              18.525833,
              58.819444
            ],
            [
              18.63,
              58.921389
            ],
            [
              18.709167,
              59.000278
            ],
            [
              18.710833,
              59.150278
            ],
            [
              17.964167,
              59.347778
            ],
            [
              17.852222,
              59.404444
            ],
            [
              17.746667,
              59.441111
            ],
            [
              17.410556,
              59.569722
            ],
            [
              17.113056,
              59.450278
            ],
            [
              16.952778,
              59.452222
            ],
            [
              16.680278,
              59.454722
            ],
            [
              16.571944,
              59.200833
            ]
          ]
        ]
      }
    },
    {
      "type": "Feature",
      "properties": {
        "ID": "W",
        "minAlt": "GND",
        "maxAlt": "FL245",
        "parentSector": ""
      },
      "geometry": {
        "type": "Polygon",
        "coordinates": [
          [
            [
              16.680278,
              59.454722
            ],
            [
              16.952778,
              59.452222
            ],
            [
              17.113056,
              59.450278
            ],
            [
              17.410556,
              59.569722
            ],
            [
              17.938611,
              59.650556
            ],
            [
              18.124444,
              60.155833
            ],
            [
              18.213056,
              60.299444
            ],
            [
              17.828056,
              60.258056
            ],
            [
              17.596667,
              60.232778
            ],
            [
              16.891111,
              59.938889
            ],
            [
              16.680278,
              59.454722
            ]
          ]
        ]
      }
    },
    {
      "type": "Feature",
      "properties": {
        "ID": "TMA",
        "minAlt": "GND",
        "maxAlt": "FL245",
        "parentSector": ""
      },
      "geometry": {
        "type": "Polygon",
        "coordinates": [
          [
            [
              16.3135973,
              59.2192107
            ],
            [
              16.644444,
              59.093889
            ],
            [
              16.707778,
              59.011944
            ],
            [
              16.996389,
              58.993611
            ],
            [
              17.26,
              58.975833
            ],
            [
              17.407778,
              58.966111
            ],
            [
              17.441111,
              58.728611
            ],
            [
              17.456944,
              58.616389
            ],
            [
              18.178889,
              58.821389
            ],
            [
              18.525833,
              58.819444
            ],
            [
              18.63,
              58.921389
            ],
            [
              18.709167,
              59.000278
            ],
            [
              18.716389,
              59.007222
            ],
            [
              19.06,
              59.359444
            ],
            [
              19.8465732,
              59.5375514
            ],
            [
              19.2262446,
              60.042698
            ],
            [
              18.885556,
              59.948333
            ],
            [
              18.738611,
              60.090556
            ],
            [
              18.554722,
              60.266111
            ],
            [
              18.391667,
              60.279167
            ],
            [
              18.213056,
              60.299444
            ],
            [
              17.828056,
              60.258056
            ],
            [
              17.596667,
              60.232778
            ],
            [
              16.891111,
              59.938889
            ],
            [
              16.4123168,
              59.8162769
            ],
            [
              16.3135973,
              59.2192107
            ]
          ]
        ]
      }
    },
    {
      "type": "Feature",
      "properties": {
        "aor": "ARR-E",
        "category": "button",
        "name": "126.655",
        "parentSector": "E"
      },
      "geometry": null
    },
    {
      "type": "Feature",
      "properties": {
        "aor": "DEP-E",
        "category": "button",
        "name": "130.330",
        "parentSector": "E"
      },
      "geometry": null
    },
    {
      "type": "Feature",
      "properties": {
        "aor": "DIR-E",
        "category": "button",
        "name": "120.505",
        "parentSector": "E"
      },
      "geometry": null
    },
    {
      "type": "Feature",
      "properties": {
        "aor": "ARR-W",
        "category": "button",
        "name": "123.755",
        "parentSector": "W"
      },
      "geometry": null
    },
    {
      "type": "Feature",
      "properties": {
        "aor": "DEP-W",
        "category": "button",
        "name": "119.630",
        "parentSector": "W"
      },
      "geometry": null
    },
    {
      "type": "Feature",
      "properties": {
        "aor": "DIR-W",
        "category": "button",
        "name": "124.105",
        "parentSector": "W"
      },
      "geometry": null
    }
  ]
}